ONEWEB-0589             
1 54655U 22166P   25181.43540772 -.00000117  00000+0 -31402-3 0  9994
2 54655  87.9272 314.1527 0001143 117.5989 242.5261 13.21826907125070
ONEWEB-0590             
1 54656U 22166Q   25181.38324805  .00000116  00000+0  24838-3 0  9998
2 54656  87.9259 314.1426 0001740  85.4819 274.6513 13.21825566125056
ONEWEB-0591             
1 54657U 22166R   25181.62308262  .00000132  00000+0  28801-3 0  9997
2 54657  87.9272 314.1153 0001718  99.7155 260.4173 13.21827886125114
ONEWEB-0592             
1 54658U 22166S   25181.62623513  .00000163  00000+0  36373-3 0  9994
2 54658  87.9268 314.0663 0001720  98.2649 261.8680 13.21827842124995
ONEWEB-0593             
1 54659U 22166T   25181.42279636 -.00000046  00000+0 -14348-3 0  9996
2 54659  87.9272 314.1461 0001683 101.3225 258.8098 13.21827547125073
ONEWEB-0594             
1 54660U 22166U   25181.44172681  .00000050  00000+0  89638-4 0  9990
2 54660  87.9274 314.1556 0001942 100.1859 259.9494 13.21827210125091
ONEWEB-0595             
1 54661U 22166V   25181.41964158  .00000021  00000+0  18865-4 0  9998
2 54661  87.9271 314.1379 0002011  94.4582 265.6782 13.21827442125066
ONEWEB-0596             
1 54662U 22166W   25181.61993164  .00000099  00000+0  20905-3 0  9992
2 54662  87.9275 314.1109 0001858  97.2239 262.9107 13.21827843125099
ONEWEB-0597             
1 54663U 22166X   25181.60101050  .00001139  00000+0  27267-2 0  9990
2 54663  87.9275 314.1180 0001719 103.4292 256.7033 13.21835808125093
ONEWEB-0600             
1 54664U 22166Y   25181.43225725 -.00000290  00000+0 -73328-3 0  9997
2 54664  87.9256 314.1523 0001862 103.4190 256.7152 13.21825616125043
ONEWEB-0601             
1 54665U 22166Z   25181.42437706 -.00000015  00000+0 -66915-4 0  9991
2 54665  87.9274 314.1642 0001559 103.3573 256.7735 13.21824230125232
ONEWEB-0602             
1 54666U 22166AA  25181.61677908  .00000214  00000+0  48753-3 0  9991
2 54666  87.9277 314.1262 0001778 107.1491 252.9838 13.21827666125102
ONEWEB-0603             
1 54667U 22166AB  25181.62151366  .00000091  00000+0  18914-3 0  9997
2 54667  87.9253 314.0679 0001650 106.0178 254.1138 13.21827043125035
ONEWEB-0604             
1 54668U 22166AC  25181.38179592 -.00000124  00000+0 -33116-3 0  9992
2 54668  87.9271 314.1334 0001781 106.3929 253.7400 13.21824426124967
ONEWEB-0605             
1 54669U 22166AD  25181.45119110  .00000088  00000+0  18073-3 0  9993
2 54669  87.9269 314.1503 0001183  95.7223 264.4045 13.21826687125042
ONEWEB-0606             
1 54670U 22166AE  25181.62465433 -.00000040  00000+0 -12844-3 0  9996
2 54670  87.9273 314.1267 0002036  95.9453 264.1913 13.21825634125122
ONEWEB-0607             
1 54671U 22166AF  25181.59153891  .00000035  00000+0  53608-4 0  9991
2 54671  87.9273 314.0986 0001786 102.4500 257.6834 13.21825076125093
ONEWEB-0608             
1 54672U 22166AG  25181.59786608  .00000077  00000+0  15597-3 0  9990
2 54672  87.9256 314.0866 0001393 108.6649 251.4636 13.21825694125108
ONEWEB-0610             
1 54673U 22166AH  25181.42753149 -.00000039  00000+0 -12509-3 0  9997
2 54673  87.9273 314.1508 0001443 102.2235 257.9061 13.21824576124985
ONEWEB-0611             
1 54674U 22166AJ  25181.34552163 -.00000043  00000+0 -13620-3 0  9992
2 54674  87.9274 314.1640 0002161  97.6981 262.4399 13.21827458124962
ONEWEB-0612             
1 54675U 22166AK  25181.43384336  .00000031  00000+0  42827-4 0  9995
2 54675  87.9269 314.1240 0001681 101.8790 258.2532 13.21827632124961
ONEWEB-0615             
1 54676U 22166AL  25181.41493008  .00000028  00000+0  35731-4 0  9993
2 54676  87.9272 314.1539 0001953  99.3926 260.7429 13.21825546124977
ONEWEB-0655             
1 54677U 22166AM  25181.61521907  .00000133  00000+0  29011-3 0  9996
2 54677  87.9272 314.1185 0001950 109.9601 250.1743 13.21827717124996
ONEWEB-0659             
1 54678U 22166AN  25181.63254139  .00000180  00000+0  40424-3 0  9992
2 54678  87.9272 314.1161 0001942  95.4425 264.6930 13.21827637125085
ONEWEB-0685             
1 54679U 22166AP  25181.40703174  .00000080  00000+0  16288-3 0  9996
2 54679  87.9271 314.1556 0001651 104.2887 255.8430 13.21824724124946
ONEWEB-0712             
1 54680U 22166AQ  25181.57407083  .00000124  00000+0  29111-3 0  9994
2 54680  87.9054 298.8445 0002226 115.2637 244.8725 13.16586723125793
ONEWEB-0714             
1 54681U 22166AR  25181.33765753  .00000020  00000+0  17837-4 0  9998
2 54681  87.9274 314.1620 0001755 105.2976 254.8352 13.21825265125055
ONEWEB-0532             
1 55140U 23004A   25181.60073628 -.00000251  00000+0 -67889-3 0  9993
2 55140  87.9059  75.8516 0001691  65.9118 294.2190 13.17648090121284
ONEWEB-0533             
1 55141U 23004B   25181.39420412 -.00000309  00000+0 -89559-3 0  9999
2 55141  87.8878  60.6216 0001656  84.9881 275.1436 13.12443941121915
ONEWEB-0541             
1 55142U 23004C   25181.30158832 -.00000128  00000+0 -39669-3 0  9991
2 55142  87.8836  91.1884 0001924  76.5880 283.5462 13.11415367119823
ONEWEB-0543             
1 55143U 23004D   25181.55229213 -.00000038  00000+0 -13027-3 0  9991
2 55143  87.9120  45.3929 0001924  92.4907 267.6446 13.18726226123353
ONEWEB-0544             
1 55144U 23004E   25181.54579590 -.00000021  00000+0 -86888-4 0  9995
2 55144  87.9124  45.3841 0002051  85.4531 274.6835 13.18752012123350
ONEWEB-0560             
1 55145U 23004F   25181.61517595 -.00000033  00000+0 -11527-3 0  9991
2 55145  87.9129  45.3436 0002101  83.7057 276.4315 13.18773570123373
ONEWEB-0565             
1 55146U 23004G   25181.53283762  .00000127  00000+0  28926-3 0  9992
2 55146  87.9120  45.4196 0002192  71.2565 288.8805 13.18798594123357
ONEWEB-0567             
1 55147U 23004H   25181.60221660 -.00000056  00000+0 -17535-3 0  9997
2 55147  87.9123  45.3618 0002193  77.4674 282.6703 13.18823496123369
ONEWEB-0569             
1 55148U 23004J   25181.60088095 -.00000259  00000+0 -74297-3 0  9994
2 55148  87.8959  30.0638 0002806  83.9033 276.2416 13.13469665124024
ONEWEB-0570             
1 55149U 23004K   25181.59121980 -.00000011  00000+0 -59782-4 0  9993
2 55149  87.9121  45.3671 0001733  62.0620 298.0687 13.18583969123357
ONEWEB-0571             
1 55150U 23004L   25181.58472557 -.00000016  00000+0 -74516-4 0  9990
2 55150  87.9119  45.3753 0002977  68.6807 291.4643 13.18603666123364
ONEWEB-0572             
1 55151U 23004M   25181.25143459  .00000066  00000+0  13746-3 0  9991
2 55151  87.9065  75.9294 0001960  72.5416 287.5930 13.17647926121139
ONEWEB-0573             
1 55152U 23004N   25181.57824692  .00000005  00000+0 -18901-4 0  9995
2 55152  87.9119  45.3835 0002358  63.0139 297.1234 13.18630088123353
ONEWEB-0588             
1 55153U 23004P   25181.57175772 -.00000014  00000+0 -68314-4 0  9998
2 55153  87.9120  45.3675 0001853  67.9492 292.1836 13.18654980123352
ONEWEB-0598             
1 55154U 23004Q   25181.27955962  .00000590  00000+0  16281-2 0  9994
2 55154  87.8836  91.2297 0002598  75.0690 285.0725 13.11416633119776
ONEWEB-0599             
1 55155U 23004R   25181.21263284  .00000042  00000+0  75059-4 0  9990
2 55155  87.9066  75.9417 0002049  81.1148 279.0216 13.17649753121131
ONEWEB-0614             
1 55156U 23004S   25181.50336163  .00000527  00000+0  14497-2 0  9995
2 55156  87.8839  91.1942 0001688  70.1149 290.0161 13.11417538119743
ONEWEB-0616             
1 55157U 23004T   25181.40667872  .00000085  00000+0  18589-3 0  9995
2 55157  87.9061  75.8941 0002419 103.0713 257.0689 13.17652504121376
ONEWEB-0617             
1 55158U 23004U   25181.26259593  .00000305  00000+0  82511-3 0  9998
2 55158  87.8835  91.2223 0001861  66.6172 293.5152 13.11419243119735
ONEWEB-0618             
1 55159U 23004V   25181.33335189  .00014195  00000+0  24974-2 0  9993
2 55159  86.9089 317.9223 0016273 133.1369 227.1210 14.67444494129496
ONEWEB-0619             
1 55160U 23004W   25181.43874636  .00000022  00000+0  23399-4 0  9997
2 55160  87.9061  75.8652 0001422  86.9899 273.1395 13.17647881121270
ONEWEB-0620             
1 55161U 23004X   25181.48639445 -.00000042  00000+0 -15522-3 0  9992
2 55161  87.8838  91.1980 0002090  65.6362 294.4984 13.11418745119735
ONEWEB-0621             
1 55162U 23004Y   25181.51353863  .00000499  00000+0  13725-2 0  9990
2 55162  87.8833  91.1496 0001696  77.7883 282.3435 13.11416332119711
ONEWEB-0622             
1 55163U 23004Z   25181.44231915  .00000276  00000+0  74201-3 0  9996
2 55163  87.8834  91.1872 0001746  53.5438 306.5850 13.11415248119697
ONEWEB-0623             
1 55164U 23004AA  25181.43367649 -.00000029  00000+0 -10899-3 0  9991
2 55164  87.9062  75.9217 0001305  61.0875 299.0387 13.17647301121265
ONEWEB-0624             
1 55165U 23004AB  25180.65118527  .00036911  00000+0  10100+0 0  9992
2 55165  87.8864  60.7706 0004886 132.3482 227.8062 13.13219236121811
ONEWEB-0625             
1 55166U 23004AC  25181.42356017  .00000081  00000+0  17588-3 0  9997
2 55166  87.9061  75.9215 0001943  83.9765 276.1588 13.17648619121254
ONEWEB-0626             
1 55167U 23004AD  25181.41343334  .00000033  00000+0  51955-4 0  9999
2 55167  87.9064  75.9217 0002430  73.7395 286.4004 13.17647409121251
ONEWEB-0627             
1 55168U 23004AE  25181.40162569  .00000046  00000+0  86363-4 0  9993
2 55168  87.9061  75.9270 0001538  62.4730 297.6557 13.17649815121254
ONEWEB-0628             
1 55169U 23004AF  25181.18834058  .00000442  00000+0  11922-2 0  9995
2 55169  87.8873  60.6471 0001174  67.4380 292.6873 13.12443544121860
ONEWEB-0629             
1 55170U 23004AG  25181.60496280  .00000085  00000+0  18680-3 0  9997
2 55170  87.9074  75.8728 0001576  85.7770 274.3541 13.17647652121287
ONEWEB-0631             
1 55171U 23004AH  25181.56525269  .00000005  00000+0 -21108-4 0  9996
2 55171  87.9136  45.2990 0002053  67.9665 292.1685 13.18679211123337
